{"type": "FeatureCollection", "features": [ {"type": "Feature", "properties": {"norad_id": 43565, "name": "GSAT0222 (GALILEO 26)", "group": "gnss", "lat": -50.64269715706408, "lon": -65.35147782395654, "alt_km": 23211.471052915505, "timestamp": "2025-12-27T21:25:02.755201+00:00", "meta": {"OBJECT_NAME": "GSAT0222 (GALILEO 26)", "OBJECT_ID": "2018-060B", "EPOCH": "2025-12-26T19:52:33.130272", "MEAN_MOTION": 1.70475295, "ECCENTRICITY": 0.00060151, "INCLINATION": 57.228, "RA_OF_ASC_NODE": 346.4403, "ARG_OF_PERICENTER": 268.4272, "MEAN_ANOMALY": 91.5133, "EPHEMERIS_TYPE": 0, "CLASSIFICATION_TYPE": "U", "NORAD_CAT_ID": 43565, "ELEMENT_SET_NO": 999, "REV_AT_EPOCH": 4627, "BSTAR": 0, "MEAN_MOTION_DOT": -6.1e-07, "MEAN_MOTION_DDOT": 0}, "tle": {"line1": "1 43565U 18060B   25360.82816123 -.00000061  00000+0  00000+0 0  9991", "line2": "2 43565  57.2280 346.4403 0006015 268.4272  91.5133  1.70475295 46277"}}, "geometry": {"type": "Point", "coordinates": [-65.35147782395654, -50.64269715706408]}}, {"type": "Feature", "properties": {"norad_id": 43566, "name": "GSAT0219 (GALILEO 23)", "group": "gnss", "lat": 18.87664244832647, "lon": 153.68010196557776, "alt_km": 23232.180462330027, "timestamp": "2025-12-27T21:25:02.755214+00:00", "meta": {"OBJECT_NAME": "GSAT0219 (GALILEO 23)", "OBJECT_ID": "2018-060C", "EPOCH": "2025-12-26T11:06:17.532288", "MEAN_MOTION": 1.70475524, "ECCENTRICITY": 0.00059076, "INCLINATION": 57.2273, "RA_OF_ASC_NODE": 346.4517, "ARG_OF_PERICENTER": 292.2386, "MEAN_ANOMALY": 67.708, "EPHEMERIS_TYPE": 0, "CLASSIFICATION_TYPE": "U", "NORAD_CAT_ID": 43566, "ELEMENT_SET_NO": 999, "REV_AT_EPOCH": 4624, "BSTAR": 0, "MEAN_MOTION_DOT": -6e-07, "MEAN_MOTION_DDOT": 0}, "tle": {"line1": "1 43566U 18060C   25360.46270292 -.00000060  00000+0  00000+0 0  9992", "line2": "2 43566  57.2273 346.4517 0005907 292.2386  67.7080  1.70475524 46244"}}, "geometry": {"type": "Point", "coordinates": [153.68010196557776, 18.87664244832647]}}, {"type": "Feature", "properties": {"norad_id": 43567, "name": "GSAT0220 (GALILEO 24)", "group": "gnss", "lat": 18.235804646495914, "lon": -1.3424903138010769, "alt_km": 23220.98124233203, "timestamp": "2025-12-27T21:25:02.755227+00:00", "meta": {"OBJECT_NAME": "GSAT0220 (GALILEO 24)", "OBJECT_ID": "2018-060D", "EPOCH": "2025-12-23T03:56:18.956256", "MEAN_MOTION": 1.70475727, "ECCENTRICITY": 0.00061193, "INCLINATION": 57.2279, "RA_OF_ASC_NODE": 346.5416, "ARG_OF_PERICENTER": 288.3355, "MEAN_ANOMALY": 71.6054, "EPHEMERIS_TYPE": 0, "CLASSIFICATION_TYPE": "U", "NORAD_CAT_ID": 43567, "ELEMENT_SET_NO": 999, "REV_AT_EPOCH": 4617, "BSTAR": 0, "MEAN_MOTION_DOT": -6.3e-07, "MEAN_MOTION_DDOT": 0}, "tle": {"line1": "1 43567U 18060D   25357.16410829 -.00000063  00000+0  00000+0 0  9991", "line2": "2 43567  57.2279 346.5416 0006119 288.3355  71.6054  1.70475727 46170"}}, "geometry": {"type": "Point", "coordinates": [-1.3424903138010769, 18.235804646495914]}}, {"type": "Feature", "properties": {"norad_id": 43581, "name": "BEIDOU-3 M5 (C23)", "group": "gnss", "lat": 38.166811026206446, "lon": -137.13892427853312, "alt_km": 21520.121176039396, "timestamp": "2025-12-27T21:25:02.755239+00:00", "meta": {"OBJECT_NAME": "BEIDOU-3 M5 (C23)", "OBJECT_ID": "2018-062A", "EPOCH": "2025-12-26T04:58:35.647392", "MEAN_MOTION": 1.86228653, "ECCENTRICITY": 0.00019141, "INCLINATION": 54.0903, "RA_OF_ASC_NODE": 188.1851, "ARG_OF_PERICENTER": 0.5751, "MEAN_ANOMALY": 359.4593, "EPHEMERIS_TYPE": 0, "CLASSIFICATION_TYPE": "U", "NORAD_CAT_ID": 43581, "ELEMENT_SET_NO": 999, "REV_AT_EPOCH": 5041, "BSTAR": 0, "MEAN_MOTION_DOT": 1.19e-06, "MEAN_MOTION_DDOT": 0}, "tle": {"line1": "1 43581U 18062A   25360.20735703  .00000119  00000+0  00000+0 0  9990", "line2": "2 43581  54.0903 188.1851 0001914   0.5751 359.4593  1.86228653 50418"}}, "geometry": {"type": "Point", "coordinates": [-137.13892427853312, 38.166811026206446]}}, {"type": "Feature", "properties": {"norad_id": 43582, "name": "BEIDOU-3 M6 (C24)", "group": "gnss", "lat": 30.0609481067019, "lon": -16.685947204940906, "alt_km": 21525.387185679378, "timestamp": "2025-12-27T21:25:02.755250+00:00", "meta": {"OBJECT_NAME": "BEIDOU-3 M6 (C24)", "OBJECT_ID": "2018-062B", "EPOCH": "2025-12-23T22:08:28.739040", "MEAN_MOTION": 1.86229712, "ECCENTRICITY": 0.00078704, "INCLINATION": 54.0895, "RA_OF_ASC_NODE": 188.252, "ARG_OF_PERICENTER": 49.2706, "MEAN_ANOMALY": 310.8346, "EPHEMERIS_TYPE": 0, "CLASSIFICATION_TYPE": "U", "NORAD_CAT_ID": 43582, "ELEMENT_SET_NO": 999, "REV_AT_EPOCH": 5037, "BSTAR": 0, "MEAN_MOTION_DOT": 1e-06, "MEAN_MOTION_DDOT": 0}, "tle": {"line1": "1 43582U 18062B   25357.92255485  .00000100  00000+0  00000+0 0  9990", "line2": "2 43582  54.0895 188.2520 0007870  49.2706 310.8346  1.86229712 50379"}}, "geometry": {"type": "Point", "coordinates": [-16.685947204940906, 30.0609481067019]}}, {"type": "Feature", "properties": {"norad_id": 43602, "name": "BEIDOU-3 M12 (C26)", "group": "gnss", "lat": -2.7068652839617715, "lon": 8.807955565922901, "alt_km": 21549.03457017769, "timestamp": "2025-12-27T21:25:02.755261+00:00", "meta": {"OBJECT_NAME": "BEIDOU-3 M12 (C26)", "OBJECT_ID": "2018-067A", "EPOCH": "2025-12-27T01:58:26.323104", "MEAN_MOTION": 1.86227812, "ECCENTRICITY": 0.0009212, "INCLINATION": 54.1838, "RA_OF_ASC_NODE": 186.8764, "ARG_OF_PERICENTER": 41.9592, "MEAN_ANOMALY": 318.1446, "EPHEMERIS_TYPE": 0, "CLASSIFICATION_TYPE": "U", "NORAD_CAT_ID": 43602, "ELEMENT_SET_NO": 999, "REV_AT_EPOCH": 4991, "BSTAR": 0, "MEAN_MOTION_DOT": 1.28e-06, "MEAN_MOTION_DDOT": 0}, "tle": {"line1": "1 43602U 18067A   25361.08224911  .00000128  00000+0  00000+0 0  9990", "line2": "2 43602  54.1838 186.8764 0009212  41.9592 318.1446  1.86227812 49917"}}, "geometry": {"type": "Point", "coordinates": [8.807955565922901, -2.7068652839617715]}}, {"type": "Feature", "properties": {"norad_id": 43603, "name": "BEIDOU-3 M11 (C25)", "group": "gnss", "lat": 54.04058053820881, "lon": -77.95890856855388, "alt_km": 21513.101225129507, "timestamp": "2025-12-27T21:25:02.755275+00:00", "meta": {"OBJECT_NAME": "BEIDOU-3 M11 (C25)", "OBJECT_ID": "2018-067B", "EPOCH": "2025-12-24T12:46:04.310976", "MEAN_MOTION": 1.86227356, "ECCENTRICITY": 0.00056287, "INCLINATION": 54.181, "RA_OF_ASC_NODE": 186.927, "ARG_OF_PERICENTER": 37.873, "MEAN_ANOMALY": 322.1992, "EPHEMERIS_TYPE": 0, "CLASSIFICATION_TYPE": "U", "NORAD_CAT_ID": 43603, "ELEMENT_SET_NO": 999, "REV_AT_EPOCH": 4989, "BSTAR": 0, "MEAN_MOTION_DOT": 1.05e-06, "MEAN_MOTION_DDOT": 0}, "tle": {"line1": "1 43603U 18067B   25358.53199434  .00000105  00000+0  00000+0 0  9993", "line2": "2 43603  54.1810 186.9270 0005628  37.8730 322.1992  1.86227356 49897"}}, "geometry": {"type": "Point", "coordinates": [-77.95890856855388, 54.04058053820881]}}, {"type": "Feature", "properties": {"norad_id": 43622, "name": "BEIDOU-3 M13 (C32)", "group": "gnss", "lat": 44.91675441614298, "lon": -152.98988980696512, "alt_km": 21540.707309927373, "timestamp": "2025-12-27T21:25:02.755315+00:00", "meta": {"OBJECT_NAME": "BEIDOU-3 M13 (C32)", "OBJECT_ID": "2018-072A", "EPOCH": "2025-12-26T15:16:14.846880", "MEAN_MOTION": 1.86231061, "ECCENTRICITY": 0.00064836, "INCLINATION": 56.4704, "RA_OF_ASC_NODE": 68.3605, "ARG_OF_PERICENTER": 297.9888, "MEAN_ANOMALY": 61.997, "EPHEMERIS_TYPE": 0, "CLASSIFICATION_TYPE": "U", "NORAD_CAT_ID": 43622, "ELEMENT_SET_NO": 999, "REV_AT_EPOCH": 4944, "BSTAR": 0, "MEAN_MOTION_DOT": -3.2e-07, "MEAN_MOTION_DDOT": 0}, "tle": {"line1": "1 43622U 18072A   25360.63628295 -.00000032  00000+0  00000+0 0  9996", "line2": "2 43622  56.4704  68.3605 0006483 297.9888  61.9970  1.86231061 49446"}}, "geometry": {"type": "Point", "coordinates": [-152.98988980696512, 44.91675441614298]}}, {"type": "Feature", "properties": {"norad_id": 43623, "name": "BEIDOU-3 M14 (C33)", "group": "gnss", "lat": -26.491358858418145, "lon": -92.40179840720486, "alt_km": 21535.74694787977, "timestamp": "2025-12-27T21:25:02.755339+00:00", "meta": {"OBJECT_NAME": "BEIDOU-3 M14 (C33)", "OBJECT_ID": "2018-072B", "EPOCH": "2025-12-26T12:02:31.218144", "MEAN_MOTION": 1.86231056, "ECCENTRICITY": 0.00036352, "INCLINATION": 56.4724, "RA_OF_ASC_NODE": 68.3589, "ARG_OF_PERICENTER": 326.7942, "MEAN_ANOMALY": 33.2347, "EPHEMERIS_TYPE": 0, "CLASSIFICATION_TYPE": "U", "NORAD_CAT_ID": 43623, "ELEMENT_SET_NO": 999, "REV_AT_EPOCH": 4943, "BSTAR": 0, "MEAN_MOTION_DOT": -3.2e-07, "MEAN_MOTION_DDOT": 0}, "tle": {"line1": "1 43623U 18072B   25360.50175021 -.00000032  00000+0  00000+0 0  9997", "line2": "2 43623  56.4724  68.3589 0003635 326.7942  33.2347  1.86231056 49431"}}, "geometry": {"type": "Point", "coordinates": [-92.40179840720486, -26.491358858418145]}}, {"type": "Feature", "properties": {"norad_id": 43647, "name": "BEIDOU-3 M16 (C35)", "group": "gnss", "lat": 50.9800954108499, "lon": 63.3393713950941, "alt_km": 21520.479376883242, "timestamp": "2025-12-27T21:25:02.755372+00:00", "meta": {"OBJECT_NAME": "BEIDOU-3 M16 (C35)", "OBJECT_ID": "2018-078A", "EPOCH": "2025-12-26T02:56:19.347360", "MEAN_MOTION": 1.86232218, "ECCENTRICITY": 0.0007499, "INCLINATION": 54.2494, "RA_OF_ASC_NODE": 306.0535, "ARG_OF_PERICENTER": 20.7112, "MEAN_ANOMALY": 339.3289, "EPHEMERIS_TYPE": 0, "CLASSIFICATION_TYPE": "U", "NORAD_CAT_ID": 43647, "ELEMENT_SET_NO": 999, "REV_AT_EPOCH": 4893, "BSTAR": 0, "MEAN_MOTION_DOT": -5.5e-07, "MEAN_MOTION_DDOT": 0}, "tle": {"line1": "1 43647U 18078A   25360.12244615 -.00000055  00000+0  00000+0 0  9998", "line2": "2 43647  54.2494 306.0535 0007499  20.7112 339.3289  1.86232218 48932"}}, "geometry": {"type": "Point", "coordinates": [63.3393713950941, 50.9800954108499]}}]}